ORBCOMM FM15            
1 25418U 98046F   23072.54442174  .00002249  00000+0  84463-3 0  9996
2 25418  44.9968 125.5926 0002273 163.3208 306.5822 14.34212722285413